Total gap duration: 6 days, 22:16:27.519715
STARLINK-3780
1 52278U 22041T   24100.76876973  .00001495  00000+0  11199-3 0  9995
2 52278  53.2188   6.7021 0001416 101.8175 258.2976 15.08841749108852
Total gap duration: 6 days, 21:13:33.520645
STARLINK-4438
1 53682U 22105AL  24101.53359132  .00001282  00000+0  10437-3 0  9993
2 53682  97.6539 343.3498 0004243  50.6527 309.5072 15.01265928 88772
Total gap duration: 6 days, 21:28:26.059986
STARLINK-30863
1 59027U 24038E   24101.44225970 -.00001754  00000+0 -57249-4 0  9990
2 59027  43.0073   3.1834 0001180 314.5642  45.5112 15.25896378  7959
Total gap duration: 6 days, 21:10:32.097555
STARLINK-4424
1 53681U 22105AK  24100.94297993  .00001417  00000+0  11485-3 0  9996
2 53681  97.6543 342.7726 0005165  70.9661 289.2122 15.01264319 88404
Total gap duration: 6 days, 21:18:35.100046
STARLINK-3399
1 51121U 22005T   24101.50020870  .00001921  00000+0  13875-3 0  9998
2 51121  53.2158 183.4267 0001374  82.8103 277.3045 15.08849021124580
Total gap duration: 6 days, 21:16:08.931403
STARLINK-3458
1 51758U 22016AW  24101.54892551 -.00002243  00000+0 -12289-3 0  9991
2 51758  53.2160 203.1516 0001426  81.3397 278.7756 15.08840737119452
Total gap duration: 6 days, 21:11:47.867174
STARLINK-5267
1 55655U 23021AD  24101.39274138 -.00000324  00000+0 -19395-4 0  9990
2 55655  69.9989 125.2250 0002837 263.3021  96.7815 14.98325629 64388
Total gap duration: 6 days, 21:28:46.778279
STARLINK-30301
1 57666U 23124D   24101.50815761  .00000571  00000+0  58370-4 0  9992
2 57666  53.1123 192.9504 0001626  90.4110 269.7065 15.05576779 36902
Total gap duration: 6 days, 21:08:36.857025
STARLINK-5316
1 55305U 23010AN  24101.10739491  .00000017  00000+0  92306-5 0  9998
2 55305  69.9997 346.0217 0002954 269.9718  90.1102 14.98328213 68316
Total gap duration: 6 days, 21:24:07.460464
STARLINK-6158
1 56375U 23061B   24100.87857546  .00000277  00000+0  35567-4 0  9990
2 56375  43.0057  34.7543 0001093 272.5081  87.5636 15.02533187 51636
Total gap duration: 6 days, 20:30:52.790327
